SXM-7                   
1 47240U 20096A   21177.57856094 -.00000031  00000-0  00000-0 0  9991
2 47240   0.0142  51.5129 0001893 306.3670  10.0057  1.00271014  2107
CMS-01                  
1 47256U 20099A   21177.42479949 -.00000175  00000-0  00000-0 0  9994
2 47256   0.0283 263.6538 0003048 359.4732 247.6572  1.00271621  1981
TURKSAT 5A              
1 47306U 21001A   21177.53747403  .00000145  00000-0  00000-0 0  9995
2 47306   0.0092  35.3396 0000378  30.3101  73.6282  1.00271091  1761
TIANTONG-1 3            
1 47321U 21003A   21177.47572909 -.00000160  00000-0  00000-0 0  9992
2 47321   5.1985 309.2724 0005174 168.7623  49.5674  1.00270497  1752
TJS-6                   
1 47613U 21010A   21177.56792775  .00000034  00000-0  00000-0 0  9998
2 47613   0.6882 281.6684 0000845 225.3809 150.8781  1.00267015  1629
